[{"OBJECT_NAME":"STARLINK-1217","OBJECT_ID":"2020-012BA","EPOCH":"2025-09-14T06:00:02.000160","MEAN_MOTION":15.84079835,"ECCENTRICITY":0.0003038,"INCLINATION":53.0454,"RA_OF_ASC_NODE":33.6469,"ARG_OF_PERICENTER":157.6297,"MEAN_ANOMALY":43.0678,"EPHEMERIS_TYPE":0,"CLASSIFICATION_TYPE":"U","NORAD_CAT_ID":45226,"ELEMENT_SET_NO":999,"REV_AT_EPOCH":593,"BSTAR":0.0010795389,"MEAN_MOTION_DOT":0.00254292,"MEAN_MOTION_DDOT":0},{"OBJECT_NAME":"STARLINK-1221","OBJECT_ID":"2020-012BB","EPOCH":"2025-09-14T01:46:26.421888","MEAN_MOTION":15.34858868,"ECCENTRICITY":0.00043585,"INCLINATION":53.071,"RA_OF_ASC_NODE":22.0413,"ARG_OF_PERICENTER":159.2554,"MEAN_ANOMALY":200.8626,"EPHEMERIS_TYPE":0,"CLASSIFICATION_TYPE":"U","NORAD_CAT_ID":45227,"ELEMENT_SET_NO":999,"REV_AT_EPOCH":30952,"BSTAR":0.00033332304,"MEAN_MOTION_DOT":0.00011068,"MEAN_MOTION_DDOT":0},{"OBJECT_NAME":"STARLINK-1222","OBJECT_ID":"2020-012BC","EPOCH":"2025-09-13T18:56:16.542240","MEAN_MOTION":15.06394445,"ECCENTRICITY":0.00015731,"INCLINATION":53.0542,"RA_OF_ASC_NODE":80.7546,"ARG_OF_PERICENTER":94.9533,"MEAN_ANOMALY":265.1635,"EPHEMERIS_TYPE":0,"CLASSIFICATION_TYPE":"U","NORAD_CAT_ID":45228,"ELEMENT_SET_NO":999,"REV_AT_EPOCH":30862,"BSTAR":-1.8519156e-5,"MEAN_MOTION_DOT":-5.57e-6,"MEAN_MOTION_DDOT":0},{"OBJECT_NAME":"STARLINK-1226","OBJECT_ID":"2020-012BD","EPOCH":"2025-09-14T05:11:58.631712","MEAN_MOTION":15.06403409,"ECCENTRICITY":0.00018741,"INCLINATION":53.0538,"RA_OF_ASC_NODE":78.8348,"ARG_OF_PERICENTER":104.9385,"MEAN_ANOMALY":255.1811,"EPHEMERIS_TYPE":0,"CLASSIFICATION_TYPE":"U","NORAD_CAT_ID":45229,"ELEMENT_SET_NO":999,"REV_AT_EPOCH":30869,"BSTAR":0.00012577937,"MEAN_MOTION_DOT":1.592e-5,"MEAN_MOTION_DDOT":0},{"OBJECT_NAME":"STARLINK-1227","OBJECT_ID":"2020-012BE","EPOCH":"2025-09-14T05:06:39.553056","MEAN_MOTION":15.06400037,"ECCENTRICITY":0.00012058,"INCLINATION":53.0552,"RA_OF_ASC_NODE":78.8505,"ARG_OF_PERICENTER":87.9522,"MEAN_ANOMALY":272.1605,"EPHEMERIS_TYPE":0,"CLASSIFICATION_TYPE":"U","NORAD_CAT_ID":45230,"ELEMENT_SET_NO":999,"REV_AT_EPOCH":30881,"BSTAR":7.9289282e-5,"MEAN_MOTION_DOT":9.0e-6,"MEAN_MOTION_DDOT":0},{"OBJECT_NAME":"STARLINK-1238","OBJECT_ID":"2020-012BH","EPOCH":"2025-09-14T06:00:02.000160","MEAN_MOTION":15.92308681,"ECCENTRICITY":0.0001013,"INCLINATION":53.0385,"RA_OF_ASC_NODE":50.1689,"ARG_OF_PERICENTER":97.1247,"MEAN_ANOMALY":108.0546,"EPHEMERIS_TYPE":0,"CLASSIFICATION_TYPE":"U","NORAD_CAT_ID":45233,"ELEMENT_SET_NO":999,"REV_AT_EPOCH":569,"BSTAR":0.001215632,"MEAN_MOTION_DOT":0.00416375,"MEAN_MOTION_DDOT":7.7830798e-5},{"OBJECT_NAME":"STARLINK-1246","OBJECT_ID":"2020-012BK","EPOCH":"2025-09-13T21:30:12.158784","MEAN_MOTION":15.06394283,"ECCENTRICITY":0.0001264,"INCLINATION":53.0541,"RA_OF_ASC_NODE":120.2755,"ARG_OF_PERICENTER":93.0881,"MEAN_ANOMALY":267.0252,"EPHEMERIS_TYPE":0,"CLASSIFICATION_TYPE":"U","NORAD_CAT_ID":45235,"ELEMENT_SET_NO":999,"REV_AT_EPOCH":30821,"BSTAR":0.00014693888,"MEAN_MOTION_DOT":1.908e-5,"MEAN_MOTION_DDOT":0},{"OBJECT_NAME":"STARLINK-1247","OBJECT_ID":"2020-012BL","EPOCH":"2025-09-14T06:00:02.000160","MEAN_MOTION":15.91329309,"ECCENTRICITY":8.079e-5,"INCLINATION":53.041,"RA_OF_ASC_NODE":30.0847,"ARG_OF_PERICENTER":150.4736,"MEAN_ANOMALY":72.8463,"EPHEMERIS_TYPE":0,"CLASSIFICATION_TYPE":"U","NORAD_CAT_ID":45236,"ELEMENT_SET_NO":999,"REV_AT_EPOCH":605,"BSTAR":0.001229204,"MEAN_MOTION_DOT":0.00400065,"MEAN_MOTION_DDOT":7.1766646e-5},{"OBJECT_NAME":"STARLINK-1270","OBJECT_ID":"2020-012BM","EPOCH":"2025-09-14T05:33:12.562560","MEAN_MOTION":15.06396463,"ECCENTRICITY":0.00013725,"INCLINATION":53.0555,"RA_OF_ASC_NODE":78.77,"ARG_OF_PERICENTER":91.7069,"MEAN_ANOMALY":268.4078,"EPHEMERIS_TYPE":0,"CLASSIFICATION_TYPE":"U","NORAD_CAT_ID":45237,"ELEMENT_SET_NO":999,"REV_AT_EPOCH":30880,"BSTAR":5.1466228e-5,"MEAN_MOTION_DOT":4.85e-6,"MEAN_MOTION_DDOT":0},{"OBJECT_NAME":"STARLINK-1279","OBJECT_ID":"2020-019A","EPOCH":"2025-09-14T06:09:01.703808","MEAN_MOTION":15.06396348,"ECCENTRICITY":0.00016465,"INCLINATION":53.0565,"RA_OF_ASC_NODE":208.6579,"ARG_OF_PERICENTER":86.404,"MEAN_ANOMALY":273.7138,"EPHEMERIS_TYPE":0,"CLASSIFICATION_TYPE":"U","NORAD_CAT_ID":45360,"ELEMENT_SET_NO":999,"REV_AT_EPOCH":30354,"BSTAR":3.0106566e-5,"MEAN_MOTION_DOT":1.67e-6,"MEAN_MOTION_DDOT":0},{"OBJECT_NAME":"STARLINK-1301","OBJECT_ID":"2020-019B","EPOCH":"2025-09-14T04:16:13.107072","MEAN_MOTION":15.0640945,"ECCENTRICITY":0.00018287,"INCLINATION":53.0525,"RA_OF_ASC_NODE":219.0102,"ARG_OF_PERICENTER":93.0017,"MEAN_ANOMALY":267.1181,"EPHEMERIS_TYPE":0,"CLASSIFICATION_TYPE":"U","NORAD_CAT_ID":45361,"ELEMENT_SET_NO":999,"REV_AT_EPOCH":30340,"BSTAR":0.00010982,"MEAN_MOTION_DOT":1.355e-5,"MEAN_MOTION_DDOT":0},{"OBJECT_NAME":"STARLINK-1306","OBJECT_ID":"2020-019C","EPOCH":"2025-09-14T06:53:06.894240","MEAN_MOTION":15.54235668,"ECCENTRICITY":0.00081171,"INCLINATION":53.0529,"RA_OF_ASC_NODE":224.3549,"ARG_OF_PERICENTER":50.7596,"MEAN_ANOMALY":309.4133,"EPHEMERIS_TYPE":0,"CLASSIFICATION_TYPE":"U","NORAD_CAT_ID":45362,"ELEMENT_SET_NO":999,"REV_AT_EPOCH":30333,"BSTAR":0.0017445583,"MEAN_MOTION_DOT":0.00117168,"MEAN_MOTION_DDOT":0},{"OBJECT_NAME":"STARLINK-1262","OBJECT_ID":"2020-019G","EPOCH":"2025-09-14T05:01:20.831232","MEAN_MOTION":15.06395293,"ECCENTRICITY":0.00022781,"INCLINATION":53.0532,"RA_OF_ASC_NODE":238.8685,"ARG_OF_PERICENTER":86.3274,"MEAN_ANOMALY":273.7976,"EPHEMERIS_TYPE":0,"CLASSIFICATION_TYPE":"U","NORAD_CAT_ID":45366,"ELEMENT_SET_NO":999,"REV_AT_EPOCH":30313,"BSTAR":1.6249284e-5,"MEAN_MOTION_DOT":-4.0e-7,"MEAN_MOTION_DDOT":0},{"OBJECT_NAME":"STARLINK-1273","OBJECT_ID":"2020-019H","EPOCH":"2025-09-14T05:33:12.625632","MEAN_MOTION":15.06394247,"ECCENTRICITY":0.00011419,"INCLINATION":53.0514,"RA_OF_ASC_NODE":238.7711,"ARG_OF_PERICENTER":87.7193,"MEAN_ANOMALY":272.3926,"EPHEMERIS_TYPE":0,"CLASSIFICATION_TYPE":"U","NORAD_CAT_ID":45367,"ELEMENT_SET_NO":999,"REV_AT_EPOCH":30313,"BSTAR":1.5192402e-5,"MEAN_MOTION_DOT":-5.5e-7,"MEAN_MOTION_DDOT":0},{"OBJECT_NAME":"STARLINK-1276","OBJECT_ID":"2020-019J","EPOCH":"2025-09-13T16:06:25.517088","MEAN_MOTION":15.06395721,"ECCENTRICITY":0.00014619,"INCLINATION":53.0545,"RA_OF_ASC_NODE":241.2878,"ARG_OF_PERICENTER":87.1218,"MEAN_ANOMALY":272.9938,"EPHEMERIS_TYPE":0,"CLASSIFICATION_TYPE":"U","NORAD_CAT_ID":45368,"ELEMENT_SET_NO":999,"REV_AT_EPOCH":30305,"BSTAR":4.9596343e-5,"MEAN_MOTION_DOT":4.57e-6,"MEAN_MOTION_DDOT":0},{"OBJECT_NAME":"STARLINK-1277","OBJECT_ID":"2020-019K","EPOCH":"2025-09-13T15:55:55.558272","MEAN_MOTION":15.06407238,"ECCENTRICITY":0.00015491,"INCLINATION":53.0522,"RA_OF_ASC_NODE":241.9485,"ARG_OF_PERICENTER":85.2512,"MEAN_ANOMALY":274.8654,"EPHEMERIS_TYPE":0,"CLASSIFICATION_TYPE":"U","NORAD_CAT_ID":45369,"ELEMENT_SET_NO":999,"REV_AT_EPOCH":30304,"BSTAR":0.00010731099,"MEAN_MOTION_DOT":1.318e-5,"MEAN_MOTION_DDOT":0},{"OBJECT_NAME":"STARLINK-1281","OBJECT_ID":"2020-019L","EPOCH":"2025-09-13T15:50:31.475328","MEAN_MOTION":15.06392774,"ECCENTRICITY":0.00012672,"INCLINATION":53.055,"RA_OF_ASC_NODE":241.337,"ARG_OF_PERICENTER":86.7291,"MEAN_ANOMALY":273.3843,"EPHEMERIS_TYPE":0,"CLASSIFICATION_TYPE":"U","NORAD_CAT_ID":45370,"ELEMENT_SET_NO":999,"REV_AT_EPOCH":30305,"BSTAR":0.00013659009,"MEAN_MOTION_DOT":1.753e-5,"MEAN_MOTION_DDOT":0},{"OBJECT_NAME":"STARLINK-1300","OBJECT_ID":"2020-019Q","EPOCH":"2025-09-13T16:22:19.817184","MEAN_MOTION":15.06405093,"ECCENTRICITY":0.00013089,"INCLINATION":53.0534,"RA_OF_ASC_NODE":241.235,"ARG_OF_PERICENTER":90.1954,"MEAN_ANOMALY":269.9185,"EPHEMERIS_TYPE":0,"CLASSIFICATION_TYPE":"U","NORAD_CAT_ID":45374,"ELEMENT_SET_NO":999,"REV_AT_EPOCH":30305,"BSTAR":8.9467333e-5,"MEAN_MOTION_DOT":1.052e-5,"MEAN_MOTION_DDOT":0},{"OBJECT_NAME":"STARLINK-1302","OBJECT_ID":"2020-019R","EPOCH":"2025-09-14T05:27:53.294688","MEAN_MOTION":15.06402424,"ECCENTRICITY":0.00013904,"INCLINATION":53.0542,"RA_OF_ASC_NODE":238.7897,"ARG_OF_PERICENTER":78.7542,"MEAN_ANOMALY":281.3604,"EPHEMERIS_TYPE":0,"CLASSIFICATION_TYPE":"U","NORAD_CAT_ID":45375,"ELEMENT_SET_NO":999,"REV_AT_EPOCH":30313,"BSTAR":0.0001118319,"MEAN_MOTION_DOT":1.385e-5,"MEAN_MOTION_DDOT":0},{"OBJECT_NAME":"STARLINK-1304","OBJECT_ID":"2020-019S","EPOCH":"2025-09-14T05:54:26.332704","MEAN_MOTION":15.06390518,"ECCENTRICITY":0.00014312,"INCLINATION":53.0522,"RA_OF_ASC_NODE":238.7078,"ARG_OF_PERICENTER":93.2624,"MEAN_ANOMALY":266.8529,"EPHEMERIS_TYPE":0,"CLASSIFICATION_TYPE":"U","NORAD_CAT_ID":45376,"ELEMENT_SET_NO":999,"REV_AT_EPOCH":30313,"BSTAR":0.00011547641,"MEAN_MOTION_DOT":1.439e-5,"MEAN_MOTION_DDOT":0},{"OBJECT_NAME":"STARLINK-1305","OBJECT_ID":"2020-019T","EPOCH":"2025-09-13T16:11:43.993536","MEAN_MOTION":15.06380203,"ECCENTRICITY":0.00013916,"INCLINATION":53.0552,"RA_OF_ASC_NODE":241.2679,"ARG_OF_PERICENTER":88.0588,"MEAN_ANOMALY":272.056,"EPHEMERIS_TYPE":0,"CLASSIFICATION_TYPE":"U","NORAD_CAT_ID":45377,"ELEMENT_SET_NO":999,"REV_AT_EPOCH":30305,"BSTAR":0.00010174612,"MEAN_MOTION_DOT":1.234e-5,"MEAN_MOTION_DDOT":0},{"OBJECT_NAME":"STARLINK-1319","OBJECT_ID":"2020-019V","EPOCH":"2025-09-13T16:01:07.057920","MEAN_MOTION":15.06402592,"ECCENTRICITY":0.00015759,"INCLINATION":53.0532,"RA_OF_ASC_NODE":241.3052,"ARG_OF_PERICENTER":89.1791,"MEAN_ANOMALY":270.9379,"EPHEMERIS_TYPE":0,"CLASSIFICATION_TYPE":"U","NORAD_CAT_ID":45379,"ELEMENT_SET_NO":999,"REV_AT_EPOCH":30305,"BSTAR":2.8102426e-5,"MEAN_MOTION_DOT":1.37e-6,"MEAN_MOTION_DDOT":0},{"OBJECT_NAME":"STARLINK-1258","OBJECT_ID":"2020-019X","EPOCH":"2025-09-14T06:00:02.000160","MEAN_MOTION":15.96062348,"ECCENTRICITY":0.00066323,"INCLINATION":53.045,"RA_OF_ASC_NODE":168.0435,"ARG_OF_PERICENTER":116.4896,"MEAN_ANOMALY":70.6219,"EPHEMERIS_TYPE":0,"CLASSIFICATION_TYPE":"U","NORAD_CAT_ID":45381,"ELEMENT_SET_NO":999,"REV_AT_EPOCH":606,"BSTAR":0.00099418488,"MEAN_MOTION_DOT":0.00416908,"MEAN_MOTION_DDOT":8.1444994e-5}]
